LEMUR-2-ANDIS           
1 42838U 17042P   26068.55941107  .00023598  00000+0  79875-3 0  9998
2 42838  97.3659 249.7950 0009101   4.3248 355.8070 15.30557934473198
STARLINK-32909          
1 62894U 25024R   26068.10627643  .00031821  00000+0  11612-2 0  9990
2 62894  43.0022 328.9255 0001476 288.4583  71.6108 15.27571188 62176
